start=new Date('2022-12-20T00:00:00.000Z').valueOf();
sats=[{"TIME_SYSTEM":"UTC","REV_AT_EPOCH":"15949","CENTER_NAME":"EARTH","LAUNCH_DATE":"2020-01-29","MEAN_MOTION_DDOT":"0.0000000000000","RA_OF_ASC_NODE":"145.8450","REF_FRAME":"TEME","CLASSIFICATION_TYPE":"U","GP_ID":"220965852","PERIAPSIS":"546.022","FILE":"3711774","MEAN_MOTION":"15.06404415","MEAN_MOTION_DOT":"0.00001642","ECCENTRICITY":"0.00017010","DECAY_DATE":null,"SEMIMAJOR_AXIS":"6925.335","OBJECT_ID":"2020-006X","EPHEMERIS_TYPE":"0","TLE_LINE2":"2 45065  53.0532 145.8450 0001701  74.1705 285.9472 15.06404415159495","COUNTRY_CODE":"US","MEAN_ANOMALY":"285.9472","INCLINATION":"53.0532","TLE_LINE1":"1 45065U 20006X   22353.70233104  .00001642  00000-0  12908-3 0  9999","SITE":"AFETR","MEAN_ELEMENT_THEORY":"SGP4","OBJECT_NAME":"STARLINK-1139","PERIOD":"95.592","ELEMENT_SET_NO":"999","RCS_SIZE":"LARGE","APOAPSIS":"548.378","NORAD_CAT_ID":"45065","ARG_OF_PERICENTER":"74.1705","EPOCH":"2022-12-19T16:51:21.401856","BSTAR":"0.00012908000000","OBJECT_TYPE":"PAYLOAD"},{"DECAY_DATE":null,"ECCENTRICITY":"0.00017750","MEAN_MOTION_DOT":"0.00002282","FILE":"3711774","GP_ID":"220964106","MEAN_MOTION":"15.06402465","PERIAPSIS":"545.977","CLASSIFICATION_TYPE":"U","COUNTRY_CODE":"US","MEAN_ANOMALY":"304.9141","TLE_LINE2":"2 45066  53.0557 145.6487 0001775  55.2015 304.9141 15.06402465159494","EPHEMERIS_TYPE":"0","OBJECT_ID":"2020-006Y","SEMIMAJOR_AXIS":"6925.341","TIME_SYSTEM":"UTC","MEAN_MOTION_DDOT":"0.0000000000000","REF_FRAME":"TEME","RA_OF_ASC_NODE":"145.6487","LAUNCH_DATE":"2020-01-29","CENTER_NAME":"EARTH","REV_AT_EPOCH":"15949","BSTAR":"0.00017202000000","OBJECT_TYPE":"PAYLOAD","EPOCH":"2022-12-19T17:49:43.555008","ARG_OF_PERICENTER":"55.2015","NORAD_CAT_ID":"45066","APOAPSIS":"548.435","SITE":"AFETR","TLE_LINE1":"1 45066U 20006Y   22353.74286522  .00002282  00000-0  17202-3 0  9999","INCLINATION":"53.0557","RCS_SIZE":"LARGE","ELEMENT_SET_NO":"999","PERIOD":"95.592","MEAN_ELEMENT_THEORY":"SGP4","OBJECT_NAME":"STARLINK-1145"},{"TIME_SYSTEM":"UTC","REV_AT_EPOCH":"15951","CENTER_NAME":"EARTH","LAUNCH_DATE":"2020-01-29","MEAN_MOTION_DDOT":"0.0000000000000","REF_FRAME":"TEME","RA_OF_ASC_NODE":"145.2914","CLASSIFICATION_TYPE":"U","MEAN_MOTION_DOT":"0.00002658","PERIAPSIS":"546.119","GP_ID":"220964355","FILE":"3711774","MEAN_MOTION":"15.06402600","ECCENTRICITY":"0.00015690","DECAY_DATE":null,"OBJECT_ID":"2020-006Z","SEMIMAJOR_AXIS":"6925.341","EPHEMERIS_TYPE":"0","COUNTRY_CODE":"US","MEAN_ANOMALY":"302.3496","TLE_LINE2":"2 45067  53.0535 145.2914 0001569  57.7645 302.3496 15.06402600159518","INCLINATION":"53.0535","SITE":"AFETR","TLE_LINE1":"1 45067U 20006Z   22353.82395903  .00002658  00000-0  19729-3 0  9996","PERIOD":"95.592","OBJECT_NAME":"STARLINK-1150","MEAN_ELEMENT_THEORY":"SGP4","RCS_SIZE":"LARGE","ELEMENT_SET_NO":"999","APOAPSIS":"548.292","NORAD_CAT_ID":"45067","EPOCH":"2022-12-19T19:46:30.060192","ARG_OF_PERICENTER":"57.7645","OBJECT_TYPE":"PAYLOAD","BSTAR":"0.00019729000000"},{"CLASSIFICATION_TYPE":"U","MEAN_MOTION_DOT":"0.00002589","MEAN_MOTION":"15.06406306","GP_ID":"220965606","FILE":"3711774","PERIAPSIS":"546.246","ECCENTRICITY":"0.00013690","DECAY_DATE":null,"OBJECT_ID":"2020-006AA","SEMIMAJOR_AXIS":"6925.329","EPHEMERIS_TYPE":"0","COUNTRY_CODE":"US","MEAN_ANOMALY":"281.3856","TLE_LINE2":"2 45068  53.0534 145.2781 0001369  78.7287 281.3856 15.06406306159505","TIME_SYSTEM":"UTC","CENTER_NAME":"EARTH","REV_AT_EPOCH":"15950","LAUNCH_DATE":"2020-01-29","REF_FRAME":"TEME","MEAN_MOTION_DDOT":"0.0000000000000","RA_OF_ASC_NODE":"145.2781","APOAPSIS":"548.142","NORAD_CAT_ID":"45068","EPOCH":"2022-12-19T19:07:57.790560","ARG_OF_PERICENTER":"78.7287","BSTAR":"0.00019258000000","OBJECT_TYPE":"PAYLOAD","INCLINATION":"53.0534","TLE_LINE1":"1 45068U 20006AA  22353.79719665  .00002589  00000-0  19258-3 0  9998","SITE":"AFETR","PERIOD":"95.592","MEAN_ELEMENT_THEORY":"SGP4","OBJECT_NAME":"STARLINK-1161","RCS_SIZE":"LARGE","ELEMENT_SET_NO":"999"},{"REV_AT_EPOCH":"15949","CENTER_NAME":"EARTH","LAUNCH_DATE":"2020-01-29","MEAN_MOTION_DDOT":"0.0000000000000","REF_FRAME":"TEME","RA_OF_ASC_NODE":"145.7279","TIME_SYSTEM":"UTC","SEMIMAJOR_AXIS":"6925.349","OBJECT_ID":"2020-006AD","EPHEMERIS_TYPE":"0","TLE_LINE2":"2 45071  53.0547 145.7279 0001666  65.3809 294.7353 15.06399954159490","COUNTRY_CODE":"US","MEAN_ANOMALY":"294.7353","CLASSIFICATION_TYPE":"U","PERIAPSIS":"546.060","GP_ID":"220965352","FILE":"3711774","MEAN_MOTION":"15.06399954","MEAN_MOTION_DOT":"-0.00000589","ECCENTRICITY":"0.00016660","DECAY_DATE":null,"MEAN_ELEMENT_THEORY":"SGP4","OBJECT_NAME":"STARLINK-1167","PERIOD":"95.592","ELEMENT_SET_NO":"999","RCS_SIZE":"LARGE","INCLINATION":"53.0547","TLE_LINE1":"1 45071U 20006AD  22353.72444174 -.00000589  00000-0 -20648-4 0  9991","SITE":"AFETR","NORAD_CAT_ID":"45071","APOAPSIS":"548.367","ARG_OF_PERICENTER":"65.3809","EPOCH":"2022-12-19T17:23:11.766336","OBJECT_TYPE":"PAYLOAD","BSTAR":"-0.00002064800000"},{"COUNTRY_CODE":"US","MEAN_ANOMALY":"285.2918","TLE_LINE2":"2 45072  53.0547 145.1279 0001319  74.8217 285.2918 15.06396544159515","OBJECT_ID":"2020-006AE","SEMIMAJOR_AXIS":"6925.359","EPHEMERIS_TYPE":"0","ECCENTRICITY":"0.00013190","DECAY_DATE":null,"CLASSIFICATION_TYPE":"U","MEAN_MOTION_DOT":"-0.00000013","GP_ID":"220964606","FILE":"3711774","PERIAPSIS":"546.311","MEAN_MOTION":"15.06396544","LAUNCH_DATE":"2020-01-29","RA_OF_ASC_NODE":"145.1279","MEAN_MOTION_DDOT":"0.0000000000000","REF_FRAME":"TEME","CENTER_NAME":"EARTH","REV_AT_EPOCH":"15951","TIME_SYSTEM":"UTC","BSTAR":"0.00001804000000","OBJECT_TYPE":"PAYLOAD","APOAPSIS":"548.138","NORAD_CAT_ID":"45072","EPOCH":"2022-12-19T20:39:35.197056","ARG_OF_PERICENTER":"74.8217","PERIOD":"95.592","OBJECT_NAME":"STARLINK-1168","MEAN_ELEMENT_THEORY":"SGP4","RCS_SIZE":"LARGE","ELEMENT_SET_NO":"999","TLE_LINE1":"1 45072U 20006AE  22353.86082404 -.00000013  00000-0  18040-4 0  9995","SITE":"AFETR","INCLINATION":"53.0547"},{"OBJECT_TYPE":"PAYLOAD","BSTAR":"0.00015389000000","APOAPSIS":"548.486","NORAD_CAT_ID":"45073","ARG_OF_PERICENTER":"50.2452","EPOCH":"2022-12-19T19:41:12.575616","TLE_LINE1":"1 45073U 20006AF  22353.82028444  .00002011  00000-0  15389-3 0  9997","SITE":"AFETR","INCLINATION":"53.0552","OBJECT_NAME":"STARLINK-1170","MEAN_ELEMENT_THEORY":"SGP4","PERIOD":"95.592","ELEMENT_SET_NO":"999","RCS_SIZE":"LARGE","ECCENTRICITY":"0.00018160","DECAY_DATE":null,"CLASSIFICATION_TYPE":"U","FILE":"3711774","GP_ID":"220964856","PERIAPSIS":"545.971","MEAN_MOTION":"15.06395202","MEAN_MOTION_DOT":"0.00002011","TLE_LINE2":"2 45073  53.0552 145.2992 0001816  50.2452 309.8697 15.06395202159502","COUNTRY_CODE":"US","MEAN_ANOMALY":"309.8697","SEMIMAJOR_AXIS":"6925.363","OBJECT_ID":"2020-006AF","EPHEMERIS_TYPE":"0","TIME_SYSTEM":"UTC","LAUNCH_DATE":"2020-01-29","RA_OF_ASC_NODE":"145.2992","MEAN_MOTION_DDOT":"0.0000000000000","REF_FRAME":"TEME","REV_AT_EPOCH":"15950","CENTER_NAME":"EARTH"},{"TLE_LINE1":"1 45074U 20006AG  22353.80553291  .00000649  00000-0  62434-4 0  9998","SITE":"AFETR","INCLINATION":"53.0547","PERIOD":"95.592","MEAN_ELEMENT_THEORY":"SGP4","OBJECT_NAME":"STARLINK-1172","RCS_SIZE":"LARGE","ELEMENT_SET_NO":"999","BSTAR":"0.00006243400000","OBJECT_TYPE":"PAYLOAD","APOAPSIS":"548.205","NORAD_CAT_ID":"45074","EPOCH":"2022-12-19T19:19:58.043424","ARG_OF_PERICENTER":"78.6579","TIME_SYSTEM":"UTC","LAUNCH_DATE":"2020-01-29","REF_FRAME":"TEME","MEAN_MOTION_DDOT":"0.0000000000000","RA_OF_ASC_NODE":"145.3702","CENTER_NAME":"EARTH","REV_AT_EPOCH":"15950","ECCENTRICITY":"0.00014180","DECAY_DATE":null,"CLASSIFICATION_TYPE":"U","MEAN_MOTION_DOT":"0.00000649","FILE":"3711774","GP_ID":"220965106","MEAN_MOTION":"15.06396913","PERIAPSIS":"546.241","MEAN_ANOMALY":"281.4569","COUNTRY_CODE":"US","TLE_LINE2":"2 45074  53.0547 145.3702 0001418  78.6579 281.4569 15.06396913159502","OBJECT_ID":"2020-006AG","SEMIMAJOR_AXIS":"6925.358","EPHEMERIS_TYPE":"0"},{"TLE_LINE1":"1 45075U 20006AH  22353.70600619  .00001195  00000-0  99070-4 0  9998","SITE":"AFETR","INCLINATION":"53.0560","OBJECT_NAME":"STARLINK-1174","MEAN_ELEMENT_THEORY":"SGP4","PERIOD":"95.592","ELEMENT_SET_NO":"999","RCS_SIZE":"LARGE","BSTAR":"0.00009907000000","OBJECT_TYPE":"PAYLOAD","NORAD_CAT_ID":"45075","APOAPSIS":"548.230","ARG_OF_PERICENTER":"69.6028","EPOCH":"2022-12-19T16:56:38.934816","TIME_SYSTEM":"UTC","LAUNCH_DATE":"2020-01-29","MEAN_MOTION_DDOT":"0.0000000000000","RA_OF_ASC_NODE":"145.8254","REF_FRAME":"TEME","REV_AT_EPOCH":"15949","CENTER_NAME":"EARTH","ECCENTRICITY":"0.00014800","DECAY_DATE":null,"CLASSIFICATION_TYPE":"U","GP_ID":"220965853","MEAN_MOTION":"15.06402789","FILE":"3711774","PERIAPSIS":"546.180","MEAN_MOTION_DOT":"0.00001195","TLE_LINE2":"2 45075  53.0560 145.8254 0001480  69.6028 290.5120 15.06402789159494","COUNTRY_CODE":"US","MEAN_ANOMALY":"290.5120","SEMIMAJOR_AXIS":"6925.340","OBJECT_ID":"2020-006AH","EPHEMERIS_TYPE":"0"},{"BSTAR":"0.00000172120000","OBJECT_TYPE":"PAYLOAD","EPOCH":"2022-12-19T20:16:59.377152","ARG_OF_PERICENTER":"62.3534","NORAD_CAT_ID":"45076","APOAPSIS":"548.218","SITE":"AFETR","TLE_LINE1":"1 45076U 20006AJ  22353.84513168 -.00000256  00000-0  17212-5 0  9993","INCLINATION":"53.0547","RCS_SIZE":"LARGE","ELEMENT_SET_NO":"999","PERIOD":"95.592","OBJECT_NAME":"STARLINK-1180","MEAN_ELEMENT_THEORY":"SGP4","DECAY_DATE":null,"ECCENTRICITY":"0.00014640","MEAN_MOTION_DOT":"-0.00000256","GP_ID":"220964107","PERIAPSIS":"546.191","FILE":"3711774","MEAN_MOTION":"15.06402949","CLASSIFICATION_TYPE":"U","COUNTRY_CODE":"US","MEAN_ANOMALY":"297.7603","TLE_LINE2":"2 45076  53.0547 145.1930 0001464  62.3534 297.7603 15.06402949159514","EPHEMERIS_TYPE":"0","OBJECT_ID":"2020-006AJ","SEMIMAJOR_AXIS":"6925.340","TIME_SYSTEM":"UTC","MEAN_MOTION_DDOT":"0.0000000000000","RA_OF_ASC_NODE":"145.1930","REF_FRAME":"TEME","LAUNCH_DATE":"2020-01-29","CENTER_NAME":"EARTH","REV_AT_EPOCH":"15951"}];
